satname,norad_id,inclination_deg,eccentricity,mean_motion_rev_per_day,perigee_km,apogee_km,l1,l2
STARLINK-1316,45415,53.1546,0.0006109,15.37815499,448.39757180080596,456.7433301644169,1 45415U 20019BH  26151.22288730  .00083586  00000+0  22017-2 0  9991,2 45415  53.1546 103.7005 0006109  51.1757 308.9792 15.37815499342664
STARLINK-1286,45417,53.0456,0.0001329,15.63151464,377.66239537975343,379.458325538164,1 45417U 20019BK  26151.13217183  .00065805  00000+0  70761-3 0  9991,2 45417  53.0456  92.1236 0001329 145.3161 214.7939 15.63151464343051
STARLINK-1308,45419,53.0458,0.0007985,15.65074336,367.6341758017352,378.41578148162534,1 45419U 20019BM  26151.86995025  .00054679  00000+0  54598-3 0  9998,2 45419  53.0458 108.0088 0007985  26.2209 333.9208 15.65074336342642
STARLINK-1329,45531,53.0426,0.0003901,15.72180457,350.04082055630533,355.2921934524693,1 45531U 20025A   26151.70274507  .00078813  00000+0  58525-3 0  9998,2 45531  53.0426  32.9327 0003901 117.5749 242.5665 15.72180457338467
STARLINK-1338,45532,53.0452,0.0003817,15.67067892,364.72334052700444,369.8728056618038,1 45532U 20025B   26151.70385438  .00061000  00000+0  56198-3 0  9999,2 45532  53.0452  39.2941 0003817  82.8159 277.3290 15.67067892338375
STARLINK-1350,45535,53.072,0.0001649,15.38076898,450.6702454882952,452.9227575570967,1 45535U 20025E   26151.62540784  .00013231  00000+0  35759-3 0  9993,2 45535  53.0720   3.0390 0001649  79.5184 280.6005 15.38076898338910
STARLINK-1362,45538,53.1571,0.0002851,15.36341025,454.9914991784908,458.8888601863455,1 45538U 20025H   26151.77848435 -.00143720  00000+0 -40624-2 0  9991,2 45538  53.1571  73.3867 0002851 102.8540 257.2782 15.36341025337926
STARLINK-1368,45540,53.1581,0.0004644,15.36662694,452.8125235252146,459.1600572373218,1 45540U 20025K   26151.79195512  .00061332  00000+0  16849-2 0  9995,2 45540  53.1581  73.6948 0004644 100.8421 259.3106 15.36662694337911
STARLINK-1371,45542,53.0455,0.0005655,15.60591271,382.122950191575,389.7731303721339,1 45542U 20025M   26151.13574551  .00106848  00000+0  12576-2 0  9994,2 45542  53.0455  51.4335 0005655 101.7899 258.3748 15.60591271338155
STARLINK-1372,45543,53.1567,0.0003248,15.372592,451.99912064444834,456.4374186276036,1 45543U 20025N   26151.81793208  .00129232  00000+0  34406-2 0  9990,2 45543  53.1567  73.0959 0003248  94.6785 265.4590 15.37259200337029
STARLINK-1373,45544,53.0468,0.0003749,15.68804953,359.790896979036,364.84489005819614,1 45544U 20025P   26151.09396176  .00065524  00000+0  56178-3 0  9998,2 45544  53.0468  47.6448 0003749  60.1118 300.0270 15.68804953338200
STARLINK-1327,45555,53.0419,0.0004535,15.66432109,366.06329061640645,372.183055593413,1 45555U 20025AA  26151.76183213  .00057106  00000+0  54027-3 0  9998,2 45555  53.0419  21.3811 0004535  63.0066 297.1412 15.66432109338627
STARLINK-1356,45564,53.0433,5.13e-05,15.64532667,374.23672232857916,374.92955141462244,1 45564U 20025AK  26151.91668980 -.00235449  00000+0 -24617-2 0  9995,2 45564  53.0433  33.6725 0000513  82.6648 359.1022 15.64532667  5937
STARLINK-1357,45565,53.0456,0.0006265,15.68528199,358.8873440031175,367.33412741596203,1 45565U 20025AL  26151.57146598  .00068744  00000+0  59528-3 0  9994,2 45565  53.0456 352.3185 0006265 100.7639 259.4082 15.68528199339023
STARLINK-1361,45567,53.0439,5.47e-05,15.61131102,384.0187166757887,384.75853697936236,1 45567U 20025AN  26151.88479889  .00105300  00000+0  12150-2 0  9991,2 45567  53.0439  31.9738 0000547 147.5717 212.5329 15.61131102338494
STARLINK-1363,45568,53.0201,0.0010629,16.32103456,179.9150805369609,193.87102141933065,1 45568U 20025AP  26151.94175088  .04652870  12146-4  79529-3 0  9999,2 45568  53.0201 332.3898 0010629 276.8388  83.1446 16.32103456339313
STARLINK-1366,45569,53.029,0.0008557,16.10151703,240.758523336096,252.09580244446715,1 45569U 20025AQ  26152.02098145  .00683510  26093-3  69861-3 0  9992,2 45569  53.0290 335.0451 0008557 289.4918  70.5191 16.10151703339280
STARLINK-1376,45570,53.1575,0.000499,15.37430107,450.30282599558905,457.12101121635806,1 45570U 20025AR  26150.95123064  .00055328  00000+0  14849-2 0  9994,2 45570  53.1575  53.5846 0004990  87.1744 272.9831 15.37430107338123
STARLINK-1320,45572,53.0423,0.0006878,15.84501201,313.124184729807,322.3350188272125,1 45572U 20025AT  26151.91668980  .00178201  00000+0  74800-3 0  9994,2 45572  53.0423 290.4915 0006878 308.3384 280.5023 15.84501201  5956
STARLINK-1321,45573,53.0432,0.0003504,15.62045016,379.381980319381,384.1193095809631,1 45573U 20025AU  26151.64270638  .00117995  00000+0  13112-2 0  9995,2 45573  53.0432  17.1049 0003504 114.6175 245.5204 15.62045016338378
STARLINK-1331,45578,53.047,0.0004184,15.61902285,379.33395434442446,384.99097293559953,1 45578U 20025AZ  26151.85710446  .00103979  00000+0  11645-2 0  9995,2 45578  53.0470  22.9445 0004184  87.3367 272.8125 15.61902285338625
STARLINK-1333,45580,53.158,0.0002784,15.34533623,460.4017339482307,464.2104926737229,1 45580U 20025BB  26151.69977124  .00058753  00000+0  17290-2 0  9999,2 45580  53.1580  51.4284 0002784  92.8238 267.3083 15.34533623338225
STARLINK-1335,45581,53.155,0.0004058,15.35925555,455.39854822615143,460.9468971971046,1 45581U 20025BC  26150.95638922  .00053795  00000+0  15162-2 0  9995,2 45581  53.1550  51.7182 0004058 104.2415 255.9039 15.35925555338149
STARLINK-1337,45582,53.0464,0.0005807,15.73229858,345.7662092198625,353.57988781020686,1 45582U 20025BD  26151.83130904  .00079419  00000+0  56368-3 0  9996,2 45582  53.0464  13.0051 0005807  88.6283 271.5400 15.73229858338747
STARLINK-1347,45586,53.0397,0.000358,15.6768078,363.12562779752625,367.95410043223274,1 45586U 20025BH  26151.73204021  .00063598  00000+0  57117-3 0  9995,2 45586  53.0397 343.6894 0003580 122.4978 237.6383 15.67680780339143
STARLINK-1364,45589,53.0436,0.0001259,15.68494316,362.3590841083451,364.0565547338747,1 45589U 20025BL  26151.87066049  .00059552  00000+0  51807-3 0  9994,2 45589  53.0436  19.7409 0001259 116.6540 243.4605 15.68494316338650
STARLINK-1365,45590,53.0466,0.0003735,15.57835827,391.39237384675744,396.45110172388286,1 45590U 20025BM  26151.75452471  .00100378  00000+0  13134-2 0  9994,2 45590  53.0466  53.9167 0003735  70.8467 289.2949 15.57835827338187
STARLINK-1443,45660,53.1353,0.0003647,15.31776282,468.0149094763383,473.0103145033245,1 45660U 20035D   26151.68292343  .00051239  00000+0  16475-2 0  9997,2 45660  53.1353  40.0990 0003647  77.4335 282.7074 15.31776282331452
STARLINK-1446,45663,53.0231,0.0003201,15.47083481,423.08527863509426,427.4408153451768,1 45663U 20035G   26151.68364612  .00043813  00000+0  85491-3 0  9993,2 45663  53.0231 323.9566 0003201 153.4836 206.6335 15.47083481332509
STARLINK-1448,45665,53.0446,0.0005705,15.67332835,362.69004605789814,370.38572009949166,1 45665U 20035J   26151.82961168  .00063350  00000+0  57681-3 0  9998,2 45665  53.0446   7.2459 0005705  82.7505 277.4159 15.67332835331905
STARLINK-1451,45668,53.0519,0.0002659,15.13832696,522.689254355133,526.360089832353,1 45668U 20035M   26151.69945741  .00025407  00000+0  14013-2 0  9997,2 45668  53.0519  50.1197 0002659  97.2328 262.8967 15.13832696331304
STARLINK-1452,45669,53.0257,0.0001803,15.57419036,393.9086735616511,396.35111360347764,1 45669U 20035N   26151.73140382  .00125949  00000+0  16670-2 0  9994,2 45669  53.0257 342.3613 0001803 265.4352  94.6453 15.57419036332252
STARLINK-1453,45670,53.0406,0.0001409,15.67705906,364.51763498301443,366.4179828181632,1 45670U 20035P   26151.79936437  .00071182  00000+0  63757-3 0  9994,2 45670  53.0406 327.7095 0001409 203.2185 156.8767 15.67705906332352
STARLINK-1454,45671,53.0433,0.0002344,15.65812987,369.3196577363278,372.4836070471938,1 45671U 20035Q   26151.63595392  .00065238  00000+0  63152-3 0  9993,2 45671  53.0433   9.3476 0002344  53.7698 306.3533 15.65812987331858
STARLINK-1456,45673,53.0424,0.0005103,15.64779885,370.4263310357692,377.317431299889,1 45673U 20035S   26151.59869779  .00058387  00000+0  58974-3 0  9996,2 45673  53.0424   4.0558 0005103 131.3480 228.7973 15.64779885331944
STARLINK-1458,45675,53.0475,0.0003157,15.55567973,398.36208796801566,402.64212069849145,1 45675U 20035U   26151.64530569  .00114202  00000+0  16219-2 0  9990,2 45675  53.0475  17.9587 0003157  75.8047 284.3313 15.55567973331719
STARLINK-1460,45676,53.1588,0.0003753,15.34247023,460.590419870864,465.7254958662388,1 45676U 20035V   26150.95798652  .00053657  00000+0  15954-2 0  9994,2 45676  53.1588  42.0717 0003753 123.4784 236.6577 15.34247023331327
STARLINK-1392,45677,53.1524,0.0002826,15.37564397,451.3835515293831,455.2446877021903,1 45677U 20035W   26151.70769652  .00063694  00000+0  16990-2 0  9990,2 45677  53.1524  37.3722 0002826 132.1148 228.0097 15.37564397331491
STARLINK-1394,45679,53.0407,0.0005312,15.64544601,370.9617712954514,378.1358246872369,1 45679U 20035Y   26151.72816639  .00109953  00000+0  11090-2 0  9997,2 45679  53.0407 353.6884 0005312 140.2305 219.9099 15.64544601332097
STARLINK-1402,45685,53.0419,0.0005681,15.57042967,392.37195823596085,400.06898319418724,1 45685U 20035AE  26151.70082642  .00061791  00000+0  83909-3 0  9997,2 45685  53.0419 344.2533 0005681 157.5890 202.5370 15.57042967332239
STARLINK-1404,45686,53.1579,0.0004395,15.43531822,432.70076235165925,438.6901210679225,1 45686U 20035AF  26151.08248611  .00071277  00000+0  15584-2 0  9992,2 45686  53.1579  22.2889 0004395 140.4767 219.6561 15.43531822331654
STARLINK-1413,45689,53.1579,0.0002601,15.34223016,461.44988513938097,465.00876390139547,1 45689U 20035AJ  26151.06184147  .00047604  00000+0  14190-2 0  9995,2 45689  53.1579  26.2294 0002601 150.2130 209.9021 15.34223016331513
STARLINK-1417,45693,53.0512,0.0005866,15.16415126,512.6411969627452,520.7302029543371,1 45693U 20035AN  26151.67891477  .00034253  00000+0  17484-2 0  9993,2 45693  53.0512  37.0099 0005866 110.3358 249.8266 15.16415126331476
